{
  "type": "FeatureCollection",
  "features": [
    {
      "type": "Feature",
      "properties": {
        "norad_id": 66174,
        "name": "HTV-X1",
        "group": "stations",
        "lat": -12.934609262205115,
        "lon": -94.25580037004498,
        "alt_km": 420.08367368001564,
        "timestamp": "2025-12-26T07:29:17.228092+00:00",
        "meta_object_name": "HTV-X1",
        "meta_object_id": "2025-241A",
        "meta_epoch": "2025-12-25T21:21:30.152448",
        "meta_mean_motion": 15.49823805,
        "meta_eccentricity": 0.00032345,
        "meta_inclination": 51.6319,
        "meta_ra_of_asc_node": 77.3524,
        "meta_arg_of_pericenter": 301.523,
        "meta_mean_anomaly": 58.5443,
        "meta_ephemeris_type": 0,
        "meta_classification_type": "U",
        "meta_norad_cat_id": 66174,
        "meta_element_set_no": 999,
        "meta_rev_at_epoch": 51,
        "meta_bstar": 0.00025321218,
        "meta_mean_motion_dot": 0.00013933,
        "meta_mean_motion_ddot": 0,
        "tle_line1": "1 66174U 25241A   25359.88993232  .00013933  00000+0  25321-3 0  9990",
        "tle_line2": "2 66174  51.6319  77.3524 0003234 301.5230  58.5443 15.49823805   515"
      },
      "geometry": {
        "type": "Point",
        "coordinates": [
          -94.25580037004498,
          -12.934609262205115
        ]
      }
    },
    {
      "type": "Feature",
      "properties": {
        "norad_id": 66515,
        "name": "SZ-21 MODULE",
        "group": "stations",
        "lat": -6.25095500359597,
        "lon": 120.33172061204033,
        "alt_km": 381.3679056554611,
        "timestamp": "2025-12-26T07:29:17.228102+00:00",
        "meta_object_name": "SZ-21 MODULE",
        "meta_object_id": "2025-246C",
        "meta_epoch": "2025-12-25T04:36:53.601984",
        "meta_mean_motion": 15.63137537,
        "meta_eccentricity": 0.0004589,
        "meta_inclination": 41.4767,
        "meta_ra_of_asc_node": 300.0489,
        "meta_arg_of_pericenter": 327.9877,
        "meta_mean_anomaly": 32.0683,
        "meta_ephemeris_type": 0,
        "meta_classification_type": "U",
        "meta_norad_cat_id": 66515,
        "meta_element_set_no": 999,
        "meta_rev_at_epoch": 639,
        "meta_bstar": 0.00031272,
        "meta_mean_motion_dot": 0.00029146,
        "meta_mean_motion_ddot": 0,
        "tle_line1": "1 66515U 25246C   25359.19228706  .00029146  00000+0  31272-3 0  9990",
        "tle_line2": "2 66515  41.4767 300.0489 0004589 327.9877  32.0683 15.63137537  6398"
      },
      "geometry": {
        "type": "Point",
        "coordinates": [
          120.33172061204033,
          -6.25095500359597
        ]
      }
    },
    {
      "type": "Feature",
      "properties": {
        "norad_id": 66645,
        "name": "SHENZHOU-22",
        "group": "stations",
        "lat": 36.66623286464406,
        "lon": 56.81641473660224,
        "alt_km": 377.75919189528213,
        "timestamp": "2025-12-26T07:29:17.228113+00:00",
        "meta_object_name": "SHENZHOU-22",
        "meta_object_id": "2025-272A",
        "meta_epoch": "2025-12-25T20:14:16.934784",
        "meta_mean_motion": 15.59690263,
        "meta_eccentricity": 0.00084341,
        "meta_inclination": 41.4681,
        "meta_ra_of_asc_node": 297.125,
        "meta_arg_of_pericenter": 146.1754,
        "meta_mean_anomaly": 213.9624,
        "meta_ephemeris_type": 0,
        "meta_classification_type": "U",
        "meta_norad_cat_id": 66645,
        "meta_element_set_no": 999,
        "meta_rev_at_epoch": 26598,
        "meta_bstar": 0.00020858961,
        "meta_mean_motion_dot": 0.00016869,
        "meta_mean_motion_ddot": 0,
        "tle_line1": "1 66645U 25272A   25359.84325156  .00016869  00000+0  20859-3 0  9999",
        "tle_line2": "2 66645  41.4681 297.1250 0008434 146.1754 213.9624 15.59690263265989"
      },
      "geometry": {
        "type": "Point",
        "coordinates": [
          56.81641473660224,
          36.66623286464406
        ]
      }
    },
    {
      "type": "Feature",
      "properties": {
        "norad_id": 66664,
        "name": "SOYUZ-MS 28",
        "group": "stations",
        "lat": -12.934610805292303,
        "lon": -94.25579906297979,
        "alt_km": 420.0836737647087,
        "timestamp": "2025-12-26T07:29:17.228123+00:00",
        "meta_object_name": "SOYUZ-MS 28",
        "meta_object_id": "2025-275A",
        "meta_epoch": "2025-12-25T21:21:30.152448",
        "meta_mean_motion": 15.49823805,
        "meta_eccentricity": 0.00032345,
        "meta_inclination": 51.6319,
        "meta_ra_of_asc_node": 77.3524,
        "meta_arg_of_pericenter": 301.523,
        "meta_mean_anomaly": 58.5443,
        "meta_ephemeris_type": 0,
        "meta_classification_type": "U",
        "meta_norad_cat_id": 66664,
        "meta_element_set_no": 999,
        "meta_rev_at_epoch": 128,
        "meta_bstar": 0.00025321218,
        "meta_mean_motion_dot": 0.00013933,
        "meta_mean_motion_ddot": 0,
        "tle_line1": "1 66664U 25275A   25359.88993232  .00013933  00000+0  25321-3 0  9991",
        "tle_line2": "2 66664  51.6319  77.3524 0003234 301.5230  58.5443 15.49823805  1284"
      },
      "geometry": {
        "type": "Point",
        "coordinates": [
          -94.25579906297979,
          -12.934610805292303
        ]
      }
    },
    {
      "type": "Feature",
      "properties": {
        "norad_id": 66906,
        "name": "1998-067XS",
        "group": "stations",
        "lat": -48.478624944028894,
        "lon": 11.591677388753407,
        "alt_km": 415.67266034550266,
        "timestamp": "2025-12-26T07:29:17.228133+00:00",
        "meta_object_name": "1998-067XS",
        "meta_object_id": "1998-067XS",
        "meta_epoch": "2025-12-25T11:42:06.367680",
        "meta_mean_motion": 15.51255627,
        "meta_eccentricity": 0.0002728,
        "meta_inclination": 51.6324,
        "meta_ra_of_asc_node": 79.1676,
        "meta_arg_of_pericenter": 267.8022,
        "meta_mean_anomaly": 92.2655,
        "meta_ephemeris_type": 0,
        "meta_classification_type": "U",
        "meta_norad_cat_id": 66906,
        "meta_element_set_no": 999,
        "meta_rev_at_epoch": 359,
        "meta_bstar": 0.00047654,
        "meta_mean_motion_dot": 0.00028077,
        "meta_mean_motion_ddot": 0,
        "tle_line1": "1 66906U 98067XS  25359.48757370  .00028077  00000+0  47654-3 0  9994",
        "tle_line2": "2 66906  51.6324  79.1676 0002728 267.8022  92.2655 15.51255627  3597"
      },
      "geometry": {
        "type": "Point",
        "coordinates": [
          11.591677388753407,
          -48.478624944028894
        ]
      }
    },
    {
      "type": "Feature",
      "properties": {
        "norad_id": 66907,
        "name": "1998-067XT",
        "group": "stations",
        "lat": 6.560312102929862,
        "lon": 80.1286564987607,
        "alt_km": 406.255315173893,
        "timestamp": "2025-12-26T07:29:17.228144+00:00",
        "meta_object_name": "1998-067XT",
        "meta_object_id": "1998-067XT",
        "meta_epoch": "2025-12-24T10:39:56.166048",
        "meta_mean_motion": 15.52879993,
        "meta_eccentricity": 0.00038856,
        "meta_inclination": 51.6313,
        "meta_ra_of_asc_node": 84.2012,
        "meta_arg_of_pericenter": 298.2919,
        "meta_mean_anomaly": 61.7678,
        "meta_ephemeris_type": 0,
        "meta_classification_type": "U",
        "meta_norad_cat_id": 66907,
        "meta_element_set_no": 999,
        "meta_rev_at_epoch": 343,
        "meta_bstar": 0.0010726177,
        "meta_mean_motion_dot": 0.00067981,
        "meta_mean_motion_ddot": 0,
        "tle_line1": "1 66907U 98067XT  25358.44440007  .00067981  00000+0  10726-2 0  9992",
        "tle_line2": "2 66907  51.6313  84.2012 0003885 298.2919  61.7678 15.52879993  3433"
      },
      "geometry": {
        "type": "Point",
        "coordinates": [
          80.1286564987607,
          6.560312102929862
        ]
      }
    },
    {
      "type": "Feature",
      "properties": {
        "norad_id": 66908,
        "name": "1998-067XU",
        "group": "stations",
        "lat": 11.615531920293177,
        "lon": 84.25930861598822,
        "alt_km": 405.58067274385485,
        "timestamp": "2025-12-26T07:29:17.228153+00:00",
        "meta_object_name": "1998-067XU",
        "meta_object_id": "1998-067XU",
        "meta_epoch": "2025-12-24T10:38:25.805472",
        "meta_mean_motion": 15.52977314,
        "meta_eccentricity": 0.00038638,
        "meta_inclination": 51.6323,
        "meta_ra_of_asc_node": 84.1936,
        "meta_arg_of_pericenter": 296.7785,
        "meta_mean_anomaly": 63.2809,
        "meta_ephemeris_type": 0,
        "meta_classification_type": "U",
        "meta_norad_cat_id": 66908,
        "meta_element_set_no": 999,
        "meta_rev_at_epoch": 343,
        "meta_bstar": 0.0010585814,
        "meta_mean_motion_dot": 0.00067317,
        "meta_mean_motion_ddot": 0,
        "tle_line1": "1 66908U 98067XU  25358.44335423  .00067317  00000+0  10586-2 0  9995",
        "tle_line2": "2 66908  51.6323  84.1936 0003863 296.7785  63.2809 15.52977314  3438"
      },
      "geometry": {
        "type": "Point",
        "coordinates": [
          84.25930861598822,
          11.615531920293177
        ]
      }
    }
  ]
}